{
  "type": "FeatureCollection",
  "features": [
    {
      "type": "Feature",
      "properties": {
        "norad_id": 15362,
        "name": "NOVA 3",
        "group": "nnss",
        "lat": 63.61495153847443,
        "lon": 80.45657295941136,
        "alt_km": 1182.25289713671,
        "timestamp": "2025-12-26T23:26:42.397948+00:00",
        "meta_object_name": "NOVA 3",
        "meta_object_id": "1984-110A",
        "meta_epoch": "2025-12-26T12:17:22.808256",
        "meta_mean_motion": 13.23046399,
        "meta_eccentricity": 0.0029843,
        "meta_inclination": 90.1217,
        "meta_ra_of_asc_node": 80.6966,
        "meta_arg_of_pericenter": 292.1662,
        "meta_mean_anomaly": 78.6503,
        "meta_ephemeris_type": 0,
        "meta_classification_type": "U",
        "meta_norad_cat_id": 15362,
        "meta_element_set_no": 999,
        "meta_rev_at_epoch": 98881,
        "meta_bstar": 0.00016271828,
        "meta_mean_motion_dot": 7.7e-07,
        "meta_mean_motion_ddot": 0,
        "tle_line1": "1 15362U 84110A   25360.51206954  .00000077  00000+0  16272-3 0  9993",
        "tle_line2": "2 15362  90.1217  80.6966 0029843 292.1662  78.6503 13.23046399988811"
      },
      "geometry": {
        "type": "Point",
        "coordinates": [
          80.45657295941136,
          63.61495153847443
        ]
      }
    },
    {
      "type": "Feature",
      "properties": {
        "norad_id": 15935,
        "name": "OSCAR 30",
        "group": "nnss",
        "lat": 87.2548241821917,
        "lon": -76.46868215523585,
        "alt_km": 1031.594816786108,
        "timestamp": "2025-12-26T23:26:42.397957+00:00",
        "meta_object_name": "OSCAR 30",
        "meta_object_id": "1985-066A",
        "meta_epoch": "2025-12-26T18:09:23.815296",
        "meta_mean_motion": 13.36080704,
        "meta_eccentricity": 0.0168744,
        "meta_inclination": 90.1653,
        "meta_ra_of_asc_node": 100.0762,
        "meta_arg_of_pericenter": 44.7156,
        "meta_mean_anomaly": 67.3239,
        "meta_ephemeris_type": 0,
        "meta_classification_type": "U",
        "meta_norad_cat_id": 15935,
        "meta_element_set_no": 999,
        "meta_rev_at_epoch": 96640,
        "meta_bstar": 0.00016878,
        "meta_mean_motion_dot": 1.03e-06,
        "meta_mean_motion_ddot": 0,
        "tle_line1": "1 15935U 85066A   25360.75652564  .00000103  00000+0  16878-3 0  9990",
        "tle_line2": "2 15935  90.1653 100.0762 0168744  44.7156  67.3239 13.36080704966409"
      },
      "geometry": {
        "type": "Point",
        "coordinates": [
          -76.46868215523585,
          87.2548241821917
        ]
      }
    },
    {
      "type": "Feature",
      "properties": {
        "norad_id": 15936,
        "name": "OSCAR 24",
        "group": "nnss",
        "lat": 18.729968154190846,
        "lon": -87.38196090266769,
        "alt_km": 1167.669169277956,
        "timestamp": "2025-12-26T23:26:42.397967+00:00",
        "meta_object_name": "OSCAR 24",
        "meta_object_id": "1985-066B",
        "meta_epoch": "2025-12-26T18:04:47.699040",
        "meta_mean_motion": 13.35937879,
        "meta_eccentricity": 0.0169932,
        "meta_inclination": 90.1792,
        "meta_ra_of_asc_node": 92.5533,
        "meta_arg_of_pericenter": 51.1801,
        "meta_mean_anomaly": 113.6506,
        "meta_ephemeris_type": 0,
        "meta_classification_type": "U",
        "meta_norad_cat_id": 15936,
        "meta_element_set_no": 999,
        "meta_rev_at_epoch": 96830,
        "meta_bstar": 0.00014654,
        "meta_mean_motion_dot": 9.1e-07,
        "meta_mean_motion_ddot": 0,
        "tle_line1": "1 15936U 85066B   25360.75332985  .00000091  00000+0  14654-3 0  9999",
        "tle_line2": "2 15936  90.1792  92.5533 0169932  51.1801 113.6506 13.35937879968300"
      },
      "geometry": {
        "type": "Point",
        "coordinates": [
          -87.38196090266769,
          18.729968154190846
        ]
      }
    },
    {
      "type": "Feature",
      "properties": {
        "norad_id": 17070,
        "name": "POLAR BEAR",
        "group": "nnss",
        "lat": -28.121730203307894,
        "lon": 3.408326715347139,
        "alt_km": 1005.9712281835564,
        "timestamp": "2025-12-26T23:26:42.397977+00:00",
        "meta_object_name": "POLAR BEAR",
        "meta_object_id": "1986-088A",
        "meta_epoch": "2025-12-26T12:02:59.489088",
        "meta_mean_motion": 13.7525362,
        "meta_eccentricity": 0.0041266,
        "meta_inclination": 89.6169,
        "meta_ra_of_asc_node": 183.2226,
        "meta_arg_of_pericenter": 79.6962,
        "meta_mean_anomaly": 298.6828,
        "meta_ephemeris_type": 0,
        "meta_classification_type": "U",
        "meta_norad_cat_id": 17070,
        "meta_element_set_no": 999,
        "meta_rev_at_epoch": 96168,
        "meta_bstar": 0.00010681,
        "meta_mean_motion_dot": 1.15e-06,
        "meta_mean_motion_ddot": 0,
        "tle_line1": "1 17070U 86088A   25360.50207742  .00000115  00000+0  10681-3 0  9993",
        "tle_line2": "2 17070  89.6169 183.2226 0041266  79.6962 298.6828 13.75253620961685"
      },
      "geometry": {
        "type": "Point",
        "coordinates": [
          3.408326715347139,
          -28.121730203307894
        ]
      }
    },
    {
      "type": "Feature",
      "properties": {
        "norad_id": 18361,
        "name": "OSCAR 27",
        "group": "nnss",
        "lat": -7.874489938923393,
        "lon": 79.85618531485605,
        "alt_km": 1171.3496315295488,
        "timestamp": "2025-12-26T23:26:42.397986+00:00",
        "meta_object_name": "OSCAR 27",
        "meta_object_id": "1987-080A",
        "meta_epoch": "2025-12-26T10:59:09.176640",
        "meta_mean_motion": 13.44909552,
        "meta_eccentricity": 0.01040736,
        "meta_inclination": 90.3736,
        "meta_ra_of_asc_node": 79.7851,
        "meta_arg_of_pericenter": 184.3557,
        "meta_mean_anomaly": 175.6697,
        "meta_ephemeris_type": 0,
        "meta_classification_type": "U",
        "meta_norad_cat_id": 18361,
        "meta_element_set_no": 999,
        "meta_rev_at_epoch": 87741,
        "meta_bstar": 0.00017188841,
        "meta_mean_motion_dot": 1.13e-06,
        "meta_mean_motion_ddot": 0,
        "tle_line1": "1 18361U 87080A   25360.45774510  .00000113  00000+0  17189-3 0  9994",
        "tle_line2": "2 18361  90.3736  79.7851 0104073 184.3557 175.6697 13.44909552877414"
      },
      "geometry": {
        "type": "Point",
        "coordinates": [
          79.85618531485605,
          -7.874489938923393
        ]
      }
    },
    {
      "type": "Feature",
      "properties": {
        "norad_id": 18362,
        "name": "OSCAR 29",
        "group": "nnss",
        "lat": -18.517144932400665,
        "lon": 80.39027272209863,
        "alt_km": 1153.347754449038,
        "timestamp": "2025-12-26T23:26:42.397997+00:00",
        "meta_object_name": "OSCAR 29",
        "meta_object_id": "1987-080B",
        "meta_epoch": "2025-12-26T11:05:26.932128",
        "meta_mean_motion": 13.44450985,
        "meta_eccentricity": 0.01048753,
        "meta_inclination": 90.3748,
        "meta_ra_of_asc_node": 80.2454,
        "meta_arg_of_pericenter": 207.4741,
        "meta_mean_anomaly": 163.2863,
        "meta_ephemeris_type": 0,
        "meta_classification_type": "U",
        "meta_norad_cat_id": 18362,
        "meta_element_set_no": 999,
        "meta_rev_at_epoch": 87694,
        "meta_bstar": 0.0001514268,
        "meta_mean_motion_dot": 9.9e-07,
        "meta_mean_motion_ddot": 0,
        "tle_line1": "1 18362U 87080B   25360.46211727  .00000099  00000+0  15143-3 0  9993",
        "tle_line2": "2 18362  90.3748  80.2454 0104875 207.4741 163.2863 13.44450985876942"
      },
      "geometry": {
        "type": "Point",
        "coordinates": [
          80.39027272209863,
          -18.517144932400665
        ]
      }
    },
    {
      "type": "Feature",
      "properties": {
        "norad_id": 19070,
        "name": "OSCAR 23",
        "group": "nnss",
        "lat": -17.64203871718164,
        "lon": 16.9352255860485,
        "alt_km": 1292.7672837092987,
        "timestamp": "2025-12-26T23:26:42.398014+00:00",
        "meta_object_name": "OSCAR 23",
        "meta_object_id": "1988-033A",
        "meta_epoch": "2025-12-26T15:06:18.736128",
        "meta_mean_motion": 13.27789302,
        "meta_eccentricity": 0.01905928,
        "meta_inclination": 90.3203,
        "meta_ra_of_asc_node": 16.8225,
        "meta_arg_of_pericenter": 141.4067,
        "meta_mean_anomaly": 341.813,
        "meta_ephemeris_type": 0,
        "meta_classification_type": "U",
        "meta_norad_cat_id": 19070,
        "meta_element_set_no": 999,
        "meta_rev_at_epoch": 82437,
        "meta_bstar": 0.00012944345,
        "meta_mean_motion_dot": 7.4e-07,
        "meta_mean_motion_ddot": 0,
        "tle_line1": "1 19070U 88033A   25360.62938352  .00000074  00000+0  12944-3 0  9996",
        "tle_line2": "2 19070  90.3203  16.8225 0190592 141.4067 341.8130 13.27789302824375"
      },
      "geometry": {
        "type": "Point",
        "coordinates": [
          16.9352255860485,
          -17.64203871718164
        ]
      }
    }
  ]
}